[
  {
    "OBJECT_NAME": "STARLINK-4213",
    "OBJECT_ID": "22062AU",
    "EPOCH": "2025-11-11T01:34:11.748864",
    "MEAN_MOTION": 15.08853736,
    "ECCENTRICITY": 0.0003844,
    "INCLINATION": 53.2117,
    "RA_OF_ASC_NODE": 186.6162,
    "ARG_OF_PERICENTER": 100.9174,
    "MEAN_ANOMALY": 259.2251,
    "EPHEMERIS_TYPE": 0,
    "CLASSIFICATION_TYPE": "U",
    "NORAD_CAT_ID": 52872,
    "ELEMENT_SET_NO": 999,
    "REV_AT_EPOCH": 18815,
    "BSTAR": 0.0,
    "MEAN_MOTION_DOT": -3e-05,
    "MEAN_MOTION_DDOT": 0.0,
    "TLE_LINE1": "1 52872U 22062AU  25315.06541376 -.00003000  00000+0 -17028-3 0  9999",
    "TLE_LINE2": "2 52872  53.2117 186.6162 0003844 100.9174 259.2251 15.08853736188151",
    "COMMENT": "Grouped by shell and plane from TLE"
  },
  {
    "OBJECT_NAME": "STARLINK-4211",
    "OBJECT_ID": "22062AV",
    "EPOCH": "2025-11-11T01:16:55.443936",
    "MEAN_MOTION": 15.08848058,
    "ECCENTRICITY": 0.0001333,
    "INCLINATION": 53.2161,
    "RA_OF_ASC_NODE": 186.6989,
    "ARG_OF_PERICENTER": 90.6504,
    "MEAN_ANOMALY": 269.4641,
    "EPHEMERIS_TYPE": 0,
    "CLASSIFICATION_TYPE": "U",
    "NORAD_CAT_ID": 52873,
    "ELEMENT_SET_NO": 999,
    "REV_AT_EPOCH": 18815,
    "BSTAR": 0.00025159,
    "MEAN_MOTION_DOT": 3.719e-05,
    "MEAN_MOTION_DDOT": 0.0,
    "TLE_LINE1": "1 52873U 22062AV  25315.05341949  .00003719  00000+0  25159-3 0  9992",
    "TLE_LINE2": "2 52873  53.2161 186.6989 0001333  90.6504 269.4641 15.08848058188158",
    "COMMENT": "Grouped by shell and plane from TLE"
  },
  {
    "OBJECT_NAME": "STARLINK-4193",
    "OBJECT_ID": "22062AX",
    "EPOCH": "2025-11-11T01:11:37.276800",
    "MEAN_MOTION": 15.08843241,
    "ECCENTRICITY": 0.0001344,
    "INCLINATION": 53.2162,
    "RA_OF_ASC_NODE": 186.7162,
    "ARG_OF_PERICENTER": 83.9179,
    "MEAN_ANOMALY": 276.1966,
    "EPHEMERIS_TYPE": 0,
    "CLASSIFICATION_TYPE": "U",
    "NORAD_CAT_ID": 52875,
    "ELEMENT_SET_NO": 999,
    "REV_AT_EPOCH": 18815,
    "BSTAR": 0.00015287999999999999,
    "MEAN_MOTION_DOT": 2.146e-05,
    "MEAN_MOTION_DDOT": 0.0,
    "TLE_LINE1": "1 52875U 22062AX  25315.04973700  .00002146  00000+0  15288-3 0  9994",
    "TLE_LINE2": "2 52875  53.2162 186.7162 0001344  83.9179 276.1966 15.08843241188154",
    "COMMENT": "Grouped by shell and plane from TLE"
  },
  {
    "OBJECT_NAME": "STARLINK-4200",
    "OBJECT_ID": "22062AY",
    "EPOCH": "2025-11-11T01:22:10.865280",
    "MEAN_MOTION": 15.08866823,
    "ECCENTRICITY": 0.0001681,
    "INCLINATION": 53.2162,
    "RA_OF_ASC_NODE": 186.6834,
    "ARG_OF_PERICENTER": 79.7115,
    "MEAN_ANOMALY": 280.4067,
    "EPHEMERIS_TYPE": 0,
    "CLASSIFICATION_TYPE": "U",
    "NORAD_CAT_ID": 52876,
    "ELEMENT_SET_NO": 999,
    "REV_AT_EPOCH": 18815,
    "BSTAR": 0.00028779,
    "MEAN_MOTION_DOT": 4.298e-05,
    "MEAN_MOTION_DDOT": 0.0,
    "TLE_LINE1": "1 52876U 22062AY  25315.05707020  .00004298  00000+0  28779-3 0  9995",
    "TLE_LINE2": "2 52876  53.2162 186.6834 0001681  79.7115 280.4067 15.08866823188158",
    "COMMENT": "Grouped by shell and plane from TLE"
  },
  {
    "OBJECT_NAME": "STARLINK-4214",
    "OBJECT_ID": "22062AZ",
    "EPOCH": "2025-11-11T00:34:32.303136",
    "MEAN_MOTION": 15.08837972,
    "ECCENTRICITY": 0.000134,
    "INCLINATION": 53.2145,
    "RA_OF_ASC_NODE": 186.8388,
    "ARG_OF_PERICENTER": 87.5147,
    "MEAN_ANOMALY": 272.5999,
    "EPHEMERIS_TYPE": 0,
    "CLASSIFICATION_TYPE": "U",
    "NORAD_CAT_ID": 52877,
    "ELEMENT_SET_NO": 999,
    "REV_AT_EPOCH": 18815,
    "BSTAR": 0.00011417,
    "MEAN_MOTION_DOT": 1.529e-05,
    "MEAN_MOTION_DDOT": 0.0,
    "TLE_LINE1": "1 52877U 22062AZ  25315.02398499  .00001529  00000+0  11417-3 0  9994",
    "TLE_LINE2": "2 52877  53.2145 186.8388 0001340  87.5147 272.5999 15.08837972188159",
    "COMMENT": "Grouped by shell and plane from TLE"
  },
  {
    "OBJECT_NAME": "STARLINK-4139",
    "OBJECT_ID": "22062BB",
    "EPOCH": "2025-11-11T00:18:37.592640",
    "MEAN_MOTION": 15.08846754,
    "ECCENTRICITY": 0.0001606,
    "INCLINATION": 53.2147,
    "RA_OF_ASC_NODE": 186.8824,
    "ARG_OF_PERICENTER": 85.1955,
    "MEAN_ANOMALY": 274.9221,
    "EPHEMERIS_TYPE": 0,
    "CLASSIFICATION_TYPE": "U",
    "NORAD_CAT_ID": 52879,
    "ELEMENT_SET_NO": 999,
    "REV_AT_EPOCH": 18815,
    "BSTAR": 6.4082e-05,
    "MEAN_MOTION_DOT": 7.32e-06,
    "MEAN_MOTION_DDOT": 0.0,
    "TLE_LINE1": "1 52879U 22062BB  25315.01293510  .00000732  00000+0  64082-4 0  9995",
    "TLE_LINE2": "2 52879  53.2147 186.8824 0001606  85.1955 274.9221 15.08846754188156",
    "COMMENT": "Grouped by shell and plane from TLE"
  },
  {
    "OBJECT_NAME": "STARLINK-4186",
    "OBJECT_ID": "22062BC",
    "EPOCH": "2025-11-11T01:59:20.726592",
    "MEAN_MOTION": 15.08833443,
    "ECCENTRICITY": 0.0001568,
    "INCLINATION": 53.2145,
    "RA_OF_ASC_NODE": 186.5663,
    "ARG_OF_PERICENTER": 74.1263,
    "MEAN_ANOMALY": 285.9902,
    "EPHEMERIS_TYPE": 0,
    "CLASSIFICATION_TYPE": "U",
    "NORAD_CAT_ID": 52880,
    "ELEMENT_SET_NO": 999,
    "REV_AT_EPOCH": 18816,
    "BSTAR": 0.00012244,
    "MEAN_MOTION_DOT": 1.661e-05,
    "MEAN_MOTION_DDOT": 0.0,
    "TLE_LINE1": "1 52880U 22062BC  25315.08287878  .00001661  00000+0  12244-3 0  9998",
    "TLE_LINE2": "2 52880  53.2145 186.5663 0001568  74.1263 285.9902 15.08833443188161",
    "COMMENT": "Grouped by shell and plane from TLE"
  },
  {
    "OBJECT_NAME": "STARLINK-4181",
    "OBJECT_ID": "22062BE",
    "EPOCH": "2025-11-11T00:50:22.250400",
    "MEAN_MOTION": 15.08834602,
    "ECCENTRICITY": 0.0001406,
    "INCLINATION": 53.2167,
    "RA_OF_ASC_NODE": 186.3602,
    "ARG_OF_PERICENTER": 91.6076,
    "MEAN_ANOMALY": 268.5077,
    "EPHEMERIS_TYPE": 0,
    "CLASSIFICATION_TYPE": "U",
    "NORAD_CAT_ID": 52882,
    "ELEMENT_SET_NO": 999,
    "REV_AT_EPOCH": 18816,
    "BSTAR": 3.6688e-05,
    "MEAN_MOTION_DOT": 2.96e-06,
    "MEAN_MOTION_DDOT": 0.0,
    "TLE_LINE1": "1 52882U 22062BE  25315.03497975  .00000296  00000+0  36688-4 0  9998",
    "TLE_LINE2": "2 52882  53.2167 186.3602 0001406  91.6076 268.5077 15.08834602188163",
    "COMMENT": "Grouped by shell and plane from TLE"
  },
  {
    "OBJECT_NAME": "STARLINK-5290",
    "OBJECT_ID": "22141A",
    "EPOCH": "2025-11-11T00:35:53.899296",
    "MEAN_MOTION": 15.08844888,
    "ECCENTRICITY": 0.0001532,
    "INCLINATION": 53.2158,
    "RA_OF_ASC_NODE": 186.7743,
    "ARG_OF_PERICENTER": 87.7664,
    "MEAN_ANOMALY": 272.3504,
    "EPHEMERIS_TYPE": 0,
    "CLASSIFICATION_TYPE": "U",
    "NORAD_CAT_ID": 54157,
    "ELEMENT_SET_NO": 999,
    "REV_AT_EPOCH": 16780,
    "BSTAR": 0.00017248,
    "MEAN_MOTION_DOT": 2.459e-05,
    "MEAN_MOTION_DDOT": 0.0,
    "TLE_LINE1": "1 54157U 22141A   25315.02492939  .00002459  00000+0  17248-3 0  9990",
    "TLE_LINE2": "2 54157  53.2158 186.7743 0001532  87.7664 272.3504 15.08844888167802",
    "COMMENT": "Grouped by shell and plane from TLE"
  },
  {
    "OBJECT_NAME": "STARLINK-5297",
    "OBJECT_ID": "22141B",
    "EPOCH": "2025-11-11T01:01:03.042048",
    "MEAN_MOTION": 15.08841276,
    "ECCENTRICITY": 0.0001468,
    "INCLINATION": 53.216,
    "RA_OF_ASC_NODE": 186.8839,
    "ARG_OF_PERICENTER": 91.268,
    "MEAN_ANOMALY": 268.848,
    "EPHEMERIS_TYPE": 0,
    "CLASSIFICATION_TYPE": "U",
    "NORAD_CAT_ID": 54158,
    "ELEMENT_SET_NO": 999,
    "REV_AT_EPOCH": 16780,
    "BSTAR": 6.5842e-05,
    "MEAN_MOTION_DOT": 7.6e-06,
    "MEAN_MOTION_DDOT": 0.0,
    "TLE_LINE1": "1 54158U 22141B   25315.04239632  .00000760  00000+0  65842-4 0  9999",
    "TLE_LINE2": "2 54158  53.2160 186.8839 0001468  91.2680 268.8480 15.08841276167800",
    "COMMENT": "Grouped by shell and plane from TLE"
  },
  {
    "OBJECT_NAME": "STARLINK-5294",
    "OBJECT_ID": "22141C",
    "EPOCH": "2025-11-11T00:55:41.678112",
    "MEAN_MOTION": 15.08986701,
    "ECCENTRICITY": 0.0002014,
    "INCLINATION": 53.2164,
    "RA_OF_ASC_NODE": 186.8678,
    "ARG_OF_PERICENTER": 132.3819,
    "MEAN_ANOMALY": 227.7344,
    "EPHEMERIS_TYPE": 0,
    "CLASSIFICATION_TYPE": "U",
    "NORAD_CAT_ID": 54159,
    "ELEMENT_SET_NO": 999,
    "REV_AT_EPOCH": 16780,
    "BSTAR": 0.0,
    "MEAN_MOTION_DOT": -0.0003446,
    "MEAN_MOTION_DDOT": 0.0,
    "TLE_LINE1": "1 54159U 22141C   25315.03867683 -.00034460  00000+0 -21487-2 0  9993",
    "TLE_LINE2": "2 54159  53.2164 186.8678 0002014 132.3819 227.7344 15.08986701167801",
    "COMMENT": "Grouped by shell and plane from TLE"
  },
  {
    "OBJECT_NAME": "STARLINK-5269",
    "OBJECT_ID": "22141E",
    "EPOCH": "2025-11-11T00:57:07.276320",
    "MEAN_MOTION": 15.08843727,
    "ECCENTRICITY": 0.0001347,
    "INCLINATION": 53.2161,
    "RA_OF_ASC_NODE": 186.8668,
    "ARG_OF_PERICENTER": 86.9638,
    "MEAN_ANOMALY": 273.1509,
    "EPHEMERIS_TYPE": 0,
    "CLASSIFICATION_TYPE": "U",
    "NORAD_CAT_ID": 54161,
    "ELEMENT_SET_NO": 999,
    "REV_AT_EPOCH": 16780,
    "BSTAR": 0.00014041000000000002,
    "MEAN_MOTION_DOT": 1.948e-05,
    "MEAN_MOTION_DDOT": 0.0,
    "TLE_LINE1": "1 54161U 22141E   25315.03966755  .00001948  00000+0  14041-3 0  9998",
    "TLE_LINE2": "2 54161  53.2161 186.8668 0001347  86.9638 273.1509 15.08843727167809",
    "COMMENT": "Grouped by shell and plane from TLE"
  },
  {
    "OBJECT_NAME": "STARLINK-5273",
    "OBJECT_ID": "22141F",
    "EPOCH": "2025-11-11T00:45:08.006688",
    "MEAN_MOTION": 15.08837793,
    "ECCENTRICITY": 0.0001501,
    "INCLINATION": 53.2165,
    "RA_OF_ASC_NODE": 186.8162,
    "ARG_OF_PERICENTER": 89.0914,
    "MEAN_ANOMALY": 271.025,
    "EPHEMERIS_TYPE": 0,
    "CLASSIFICATION_TYPE": "U",
    "NORAD_CAT_ID": 54162,
    "ELEMENT_SET_NO": 999,
    "REV_AT_EPOCH": 16780,
    "BSTAR": 0.00019039,
    "MEAN_MOTION_DOT": 2.743e-05,
    "MEAN_MOTION_DDOT": 0.0,
    "TLE_LINE1": "1 54162U 22141F   25315.03134267  .00002743  00000+0  19039-3 0  9990",
    "TLE_LINE2": "2 54162  53.2165 186.8162 0001501  89.0914 271.0250 15.08837793167802",
    "COMMENT": "Grouped by shell and plane from TLE"
  }
]